NIGERIAEDUSAT-1         
1 42824U 98067MY  18124.70784802  .00013679  00000-0  13841-3 0  9998
2 42824  51.6364 222.4103 0005764  18.1382 341.9818 15.65606964 47032
CORVUS BC2              
1 42846U 17042X   18124.80940423  .00000320  00000-0  37076-4 0  9996
2 42846  97.6006  29.2405 0009347 350.5357   9.5684 14.91799283 43908
CORVUS BC1              
1 42847U 17042Y   18124.92408683  .00000082  00000-0  13432-4 0  9992
2 42847  97.6006  29.3940 0008970 350.3822   9.7224 14.91898227 43911
SILU-1 (SILKROAD 1)     
1 42903U 17021F   18125.16604948  .00017182  00000-0  14286-3 0  9997
2 42903  42.7786 228.4656 0011798 351.2884  79.3124 15.69754753 43166
MIRATA                  
1 43015U 17073C   18124.76369746  .00001536  00000-0  12568-3 0  9995
2 43015  97.7026  57.6119 0259999  53.0781 309.3945 14.77995885 24723
ASTERIA                 
1 43020U 98067NH  18124.74331283  .00008542  00000-0  11674-3 0  9997
2 43020  51.6412 232.4403 0002904  12.5535 347.5530 15.58350372 25715
DELLINGR (RBLE)         
1 43021U 98067NJ  18125.13494970  .00004935  00000-0  73826-4 0  9995
2 43021  51.6394 231.2929 0002565   8.6690 351.4346 15.56973617 25761
TECHEDSAT 6             
1 43026U 98067NK  18125.20065356  .00370984  63800-4  10614-2 0  9995
2 43026  51.6245 217.3417 0014369 349.8007  10.2706 15.92484763 25854
OSIRIS-3U               
1 43027U 98067NL  18124.55295937  .00017908  00000-0  20607-3 0  9990
2 43027  51.6379 231.1498 0004188 341.2171  18.8667 15.62066920 25591
AEROCUBE 7B             
1 43042U 17071F   18124.80110132  .00002259  00000-0  68567-4 0  9995
2 43042  51.6391 252.8390 0005805 107.3627 252.7993 15.38616172 22925
AEROCUBE 7C             
1 43043U 17071G   18125.19071217  .00002100  00000-0  64514-4 0  9992
2 43043  51.6394 250.9436 0005661 110.2688 249.8904 15.38583381 22956
CHEFSAT                 
1 43044U 17071H   18125.15719419  .00005243  00000-0  14233-3 0  9995
2 43044  51.6398 250.7314 0005589 109.2351 250.9239 15.39293267 22954
ASGARDIA 1              
1 43049U 17071N   18124.78558176  .00002157  00000-0  65690-4 0  9994
2 43049  51.6397 252.7430 0003051 124.5566 235.5707 15.38717687 22897
ISARA                   
1 43050U 17071P   18124.76595068  .00004228  00000-0  11719-3 0  9998
2 43050  51.6393 252.6193 0002935 122.2053 237.9216 15.39175347 22899
FAUNA                   
1 43052U 17071R   18124.77761907  .00002564  00000-0  75871-4 0  9999
2 43052  51.6398 252.6959 0002993 121.3092 238.8185 15.38834275 22888
CORVUS BC3              
1 43118U 18004H   18124.75623318  .00000674  00000-0  32499-4 0  9999
2 43118  97.5367 187.2526 0009189 242.6253 117.4049 15.22165177 17100
MICROMAS-2A             
1 43131U 18004W   18124.92807930  .00001395  00000-0  63050-4 0  9995
2 43131  97.5374 187.4916 0008359 244.7040 115.3331 15.22626886 17136
GOMX4-B                 
1 43196U 18015E   18124.92696756  .00000295  00000-0  15253-4 0  9990
2 43196  97.3398 254.7708 0018374 313.1469  46.8218 15.23576037 13942
GOMX4-A                 
1 43197U 18015F   18125.14687560  .00000368  00000-0  18243-4 0  9992
2 43197  97.3397 254.9846 0018221 314.0479 170.9691 15.23610328 13989
